NORAD_CAT_ID,OBJECT_NAME,OBJECT_TYPE,EPOCH,MEAN_MOTION,ECCENTRICITY,INCLINATION,RA_OF_ASC_NODE,ARG_OF_PERICENTER,MEAN_ANOMALY,BSTAR,MEAN_MOTION_DOT,MEAN_MOTION_DDOT,TLE_LINE0,TLE_LINE1,TLE_LINE2,SEMIMAJOR_AXIS,PERIOD,APOGEE,PERIGEE,DECAYED
53743.0,STARLINK-4645,PAYLOAD,2023-01-07 13:14:26,15.08838261,0.0002071,53.219,58.7971,32.2094,327.9025,0.00038495,5.843e-05,0.0,0 STARLINK-4645,1 53743U 22107AV  23007.55169092  .00005843  00000-0  38495-3 0  9995,2 53743  53.2190  58.7971 0002071  32.2094 327.9025 15.08838261 19124,6917.886,95.438,541.183,538.318,0.0
53743.0,STARLINK-4645,PAYLOAD,2023-01-08 03:32:55,15.08824721,0.0002106,53.2193,56.1219,37.1096,323.0042,0.00013808,1.909e-05,0.0,0 STARLINK-4645,1 53743U 22107AV  23008.14786178  .00001909  00000-0  13808-3 0  9991,2 53743  53.2193  56.1219 0002106  37.1096 323.0042 15.08824721 19211,6917.927,95.439,541.249,538.335,0.0
53743.0,STARLINK-4645,PAYLOAD,2023-01-08 13:05:14,15.08835632,0.0002273,53.2193,54.337,34.8173,325.2967,0.00040789,6.209e-05,0.0,0 STARLINK-4645,1 53743U 22107AV  23008.54530196  .00006209  00000-0  40789-3 0  9998,2 53743  53.2193  54.3370 0002273  34.8173 325.2967 15.08835632 20051,6917.894,95.438,541.331,538.186,0.0
53743.0,STARLINK-4645,PAYLOAD,2023-01-08 19:26:46,15.08842736,0.0002129,53.2192,53.1476,36.4558,323.6579,0.00041361,6.301e-05,0.0,0 STARLINK-4645,1 53743U 22107AV  23008.81026004  .00006301  00000-0  41361-3 0  9996,2 53743  53.2192  53.1476 0002129  36.4558 323.6579 15.08842736 19310,6917.871999999999,95.437,541.21,538.264,0.0
53743.0,STARLINK-4645,PAYLOAD,2023-01-09 09:45:14,15.08843237,0.0002036,53.2192,50.4712,38.4428,321.6709,0.000315,4.729e-05,0.0,0 STARLINK-4645,1 53743U 22107AV  23009.40642004  .00004729  00000-0  31500-3 0  9992,2 53743  53.2192  50.4712 0002036  38.4428 321.6709 15.08843237 20185,6917.87,95.437,541.144,538.327,0.0
53743.0,STARLINK-4645,PAYLOAD,2023-01-10 09:36:01,15.08841043,0.000206,53.2192,46.0106,36.0307,324.0824,2.759e-05,1.51e-06,0.0,0 STARLINK-4645,1 53743U 22107AV  23010.40001832  .00000151  00000-0  27590-4 0  9992,2 53743  53.2192  46.0106 0002060  36.0307 324.0824 15.08841043 19557,6917.877,95.437,541.1669999999998,538.317,0.0
53743.0,STARLINK-4645,PAYLOAD,2023-01-10 19:08:20,15.08830574,0.0002118,53.2191,44.2265,35.9079,324.2055,-0.00014134,-2.536e-05,0.0,0 STARLINK-4645,1 53743U 22107AV  23010.79746366 -.00002536  00000-0 -14134-3 0  9992,2 53743  53.2191  44.2265 0002118  35.9079 324.2055 15.08830574 19612,6917.9090000000015,95.438,541.239,538.309,0.0
53743.0,STARLINK-4645,PAYLOAD,2023-01-11 06:16:02,15.08850089,0.0002082,53.22,42.1454,33.0014,327.1107,0.00026675,3.961e-05,0.0,0 STARLINK-4645,1 53743U 22107AV  23011.26113788  .00003961  00000-0  26675-3 0  9995,2 53743  53.2200  42.1454 0002082  33.0014 327.1107 15.08850089 19688,6917.85,95.437,541.155,538.274,0.0
53743.0,STARLINK-4645,PAYLOAD,2023-01-11 09:26:48,15.0885885,0.0002122,53.2193,41.5504,30.261,329.8504,0.00052958,8.155e-05,0.0,0 STARLINK-4645,1 53743U 22107AV  23011.39361554  .00008155  00000-0  52958-3 0  9998,2 53743  53.2193  41.5504 0002122  30.2610 329.8504 15.08858850 20488,6917.823,95.436,541.156,538.22,0.0
53743.0,STARLINK-4645,PAYLOAD,2023-01-11 18:59:07,15.08839888,0.0001988,53.2187,39.7655,38.5839,321.5295,0.00012253,1.662e-05,0.0,0 STARLINK-4645,1 53743U 22107AV  23011.79106000  .00001662  00000-0  12253-3 0  9995,2 53743  53.2187  39.7655 0001988  38.5839 321.5295 15.08839888 19765,6917.880999999999,95.438,541.121,538.37,0.0
53743.0,STARLINK-4645,PAYLOAD,2023-01-11 20:34:30,15.08837577,0.000195,53.2177,39.4679,40.742,319.3718,1.9941e-05,2.9e-07,0.0,0 STARLINK-4645,1 53743U 22107AV  23011.85730053  .00000029  00000-0  19941-4 0  9991,2 53743  53.2177  39.4679 0001950  40.7420 319.3718 15.08837577 20554,6917.888000000001,95.438,541.102,538.404,0.0
53743.0,STARLINK-4645,PAYLOAD,2023-01-12 04:31:27,15.08828534,0.000192,53.2194,37.9828,40.9256,319.188,-3.4516999999999995e-05,-8.37e-06,0.0,0 STARLINK-4645,1 53743U 22107AV  23012.18850744 -.00000837  00000-0 -34517-4 0  9993,2 53743  53.2194  37.9828 0001920  40.9256 319.1880 15.08828534 19827,6917.915,95.438,541.109,538.452,0.0
53743.0,STARLINK-4645,PAYLOAD,2023-01-12 18:49:55,15.08835392,0.0001934,53.2193,35.3071,41.8933,318.2206,0.00014823,2.071e-05,0.0,0 STARLINK-4645,1 53743U 22107AV  23012.78466937  .00002071  00000-0  14823-3 0  9993,2 53743  53.2193  35.3071 0001934  41.8933 318.2206 15.08835392 20694,6917.894,95.438,541.097,538.422,0.0
53743.0,STARLINK-4645,PAYLOAD,2023-01-13 07:33:00,15.08841929,0.0001813,53.2193,32.9276,48.9266,311.1882,0.00038713,5.879e-05,0.0,0 STARLINK-4645,1 53743U 22107AV  23013.31459150  .00005879  00000-0  38713-3 0  9995,2 53743  53.2193  32.9276 0001813  48.9266 311.1882 15.08841929 19993,6917.874,95.437,540.994,538.485,0.0
53743.0,STARLINK-4645,PAYLOAD,2023-01-13 18:40:42,15.08842863,0.0001726,53.2192,30.8451,55.5352,304.5803,0.00050977,7.835e-05,0.0,0 STARLINK-4645,1 53743U 22107AV  23013.77827388  .00007835  00000-0  50977-3 0  9997,2 53743  53.2192  30.8451 0001726  55.5352 304.5803 15.08842863 20840,6917.871999999999,95.437,540.931,538.543,0.0
53743.0,STARLINK-4645,PAYLOAD,2023-01-14 07:23:48,15.08842028,0.0001879,53.2195,28.4675,59.6323,300.4854,0.00042484,6.48e-05,0.0,0 STARLINK-4645,1 53743U 22107AV  23014.30819764  .00006480  00000-0  42484-3 0  9995,2 53743  53.2195  28.4675 0001879  59.6323 300.4854 15.08842028 20143,6917.874,95.437,541.039,538.439,0.0
53743.0,STARLINK-4645,PAYLOAD,2023-01-15 00:53:03,15.0884297,0.0001863,53.2191,25.1953,62.7953,297.3229,0.00053522,8.241e-05,0.0,0 STARLINK-4645,1 53743U 22107AV  23015.03684066  .00008241  00000-0  53522-3 0  9993,2 53743  53.2191  25.1953 0001863  62.7953 297.3229 15.08842970 20257,6917.871,95.437,541.025,538.448,0.0
53743.0,STARLINK-4645,PAYLOAD,2023-01-15 10:25:21,15.08864551,0.0001844999999999,53.2191,23.4125,66.7916,293.3271,0.0011472,0.00018029,0.0,0 STARLINK-4645,1 53743U 22107AV  23015.43427487  .00018029  00000-0  11472-2 0  9991,2 53743  53.2191  23.4125 0001845  66.7916 293.3271 15.08864551 20311,6917.805,95.436,540.947,538.394,0.0
53743.0,STARLINK-4645,PAYLOAD,2023-01-15 19:57:39,15.08856465,0.0001602,53.2196,21.6278,59.0678,301.0471,0.00067298,0.00010443,0.0,0 STARLINK-4645,1 53743U 22107AV  23015.83171287  .00010443  00000-0  67298-3 0  9999,2 53743  53.2196  21.6278 0001602  59.0678 301.0471 15.08856465 20376,6917.83,95.437,540.803,538.587,0.0
53743.0,STARLINK-4645,PAYLOAD,2023-01-15 21:33:03,15.08863648,0.0001696,53.2197,21.3307,64.3242,295.7926,0.0010107,0.00015844,0.0,0 STARLINK-4645,1 53743U 22107AV  23015.89795207  .00015844  00000-0  10107-2 0  9995,2 53743  53.2197  21.3307 0001696  64.3242 295.7926 15.08863648 21169,6917.808000000001,95.436,540.846,538.5,0.0
53743.0,STARLINK-4645,PAYLOAD,2023-01-16 07:05:21,15.08886508,0.0001484,53.2193,19.5468,68.5759,291.5391,0.0019207,0.00030451,0.0,0 STARLINK-4645,1 53743U 22107AV  23016.29538224  .00030451  00000-0  19207-2 0  9995,2 53743  53.2193  19.5468 0001484  68.5759 291.5391 15.08886508 20446,6917.738,95.435,540.63,538.577,0.0
53743.0,STARLINK-4645,PAYLOAD,2023-01-16 10:16:06,15.08898304,0.0001494,53.2197,18.9533,74.3305,285.7852,0.002275,0.00036163,0.0,0 STARLINK-4645,1 53743U 22107AV  23016.42785740  .00036163  00000-0  22750-2 0  9990,2 53743  53.2197  18.9533 0001494  74.3305 285.7852 15.08898304 21242,6917.701999999999,95.434,540.601,538.534,0.0
53743.0,STARLINK-4645,PAYLOAD,2023-01-17 00:34:35,15.08833921,9.4e-05,53.2204,16.2765,76.4296,283.6801,0.00015615,2.198e-05,0.0,0 STARLINK-4645,1 53743U 22107AV  23017.02402456  .00002198  00000-0  15615-3 0  9991,2 53743  53.2204  16.2765 0000940  76.4296 283.6801 15.08833921 20554,6917.899,95.438,540.414,539.114,0.0
53743.0,STARLINK-4645,PAYLOAD,2023-01-17 06:56:08,15.0883344,0.0001193,53.2199,15.0876,89.4855,270.6274,0.0011856,0.00018628,0.0,0 STARLINK-4645,1 53743U 22107AV  23017.28898809  .00018628  00000-0  11856-2 0  9997,2 53743  53.2199  15.0876 0001193  89.4855 270.6274 15.08833440 21370,6917.9,95.438,540.591,538.94,0.0
53743.0,STARLINK-4645,PAYLOAD,2023-01-17 16:28:27,15.088353,0.0001341999999999,53.2185,13.3043,91.1847,268.9299,0.00079869,0.00012444,0.0,0 STARLINK-4645,1 53743U 22107AV  23017.68643119  .00012444  00000-0  79869-3 0  9992,2 53743  53.2185  13.3043 0001342  91.1847 268.9299 15.08835300 21430,6917.895,95.438,540.688,538.831,0.0
53743.0,STARLINK-4645,PAYLOAD,2023-01-18 00:25:23,15.08820156,0.000164,53.2214,11.8187,96.8248,263.2931,-0.00017312,-3.041e-05,0.0,0 STARLINK-4645,1 53743U 22107AV  23018.01763714 -.00003041  00000-0 -17312-3 0  9994,2 53743  53.2214  11.8187 0001640  96.8248 263.2931 15.08820156 20706,6917.941,95.439,540.941,538.672,0.0
53743.0,STARLINK-4645,PAYLOAD,2023-01-18 08:22:19,15.08836866,0.0001612,53.2189,10.3279,90.5609,269.5568,8.7549e-05,1.105e-05,0.0,0 STARLINK-4645,1 53743U 22107AV  23018.34883522  .00001105  00000-0  87549-4 0  9997,2 53743  53.2189  10.3279 0001612  90.5609 269.5568 15.08836866 20759,6917.89,95.438,540.87,538.64,0.0
53743.0,STARLINK-4645,PAYLOAD,2023-01-18 09:57:42,15.08837684,0.0001636999999999,53.2195,10.031,86.6883,273.4297,9.042e-05,1.151e-05,0.0,0 STARLINK-4645,1 53743U 22107AV  23018.41507427  .00001151  00000-0  90420-4 0  9995,2 53743  53.2195  10.0310 0001637  86.6883 273.4297 15.08837684 21546,6917.887,95.438,540.885,538.62,0.0
53743.0,STARLINK-4645,PAYLOAD,2023-01-19 09:48:29,15.08867155,0.0001575,53.2182,5.5709,88.9819,271.1353,0.0010189,0.00015977,0.0,0 STARLINK-4645,1 53743U 22107AV  23019.40867173  .00015977  00000-0  10189-2 0  9995,2 53743  53.2182   5.5709 0001575  88.9819 271.1353 15.08867155 20912,6917.797,95.436,540.752,538.573,0.0
53743.0,STARLINK-4645,PAYLOAD,2023-01-20 04:53:07,15.08835617,0.0002143,53.2191,2.0031,87.4866,272.6372,0.00025671,3.799e-05,0.0,0 STARLINK-4645,1 53743U 22107AV  23020.20356341  .00003799  00000-0  25671-3 0  9997,2 53743  53.2191   2.0031 0002143  87.4866 272.6372 15.08835617 21039,6917.894,95.438,541.241,538.276,0.0
